SL-16 R/B               
1 25400U 98043G   26042.77109626  .00000078  00000+0  51749-4 0  9991
2 25400  98.8208 355.9581 0010954  89.6522 270.5913 14.26043548435292
SL-16 R/B               
1 25407U 98045B   26043.00399620  .00000221  00000+0  13565-3 0  9995
2 25407  71.0085 235.5895 0005523  55.6053 304.5592 14.16186137423462
ISS (ZARYA)             
1 25544U 98067A   26042.89126571  .00008863  00000+0  17123-3 0  9994
2 25544  51.6312 199.8857 0011053  89.0260 271.1995 15.48551986552336
CZ-4B R/B               
1 25732U 99025C   26043.11779808  .00000050  00000+0  44853-4 0  9992
2 25732  98.6679  87.9987 0037979  59.5435 315.2826 14.18260165384545
OKEAN-O                 
1 25860U 99039A   26043.16889005  .00000748  00000+0  10510-3 0  9991
2 25860  97.9501 103.3126 0001840  84.0156 276.1266 14.80293283430611
SL-16 R/B               
1 25861U 99039B   26043.17287061  .00000643  00000+0  88402-4 0  9997
2 25861  98.0023 102.3000 0014364 345.5928  14.4873 14.81695209433086
DELTA 2 R/B             
1 25876U 99041E   26043.02686946  .00002281  00000+0  40433-3 0  9996
2 25876  51.7656  43.7630 0502262 272.6225  81.7331 14.11736278359400
HELIOS 1B               
1 25977U 99064A   26043.15450066  .00001960  00000+0  22220-3 0  9996
2 25977  98.1723 304.6442 0002169 111.3594 248.7853 14.87591897681468
TERRA                   
1 25994U 99068A   26043.17008164  .00000505  00000+0  11214-3 0  9994
2 25994  97.9649  97.5726 0000995 246.3970 177.7039 14.60986744391359
SL-16 R/B               
1 26070U 00006B   26042.87140087 -.00000208  00000+0 -81476-4 0  9991
2 26070  71.0029 152.1233 0018282 226.6929 133.2670 14.15820033344909
TITAN 4B R/B            
1 26474U 00047B   26043.18513959  .00003531  00000+0  22562-3 0  9991
2 26474  67.9892 112.2173 0037036  66.7162 293.7878 15.09345590389061
ENVISAT                 
1 27386U 02009A   26042.88592211  .00000144  00000+0  60398-4 0  9995
2 27386  98.3682 357.1050 0001337  88.2206 335.6982 14.39027163255469
