CCSDS_OMM_VERS = 2.0
CREATION_DATE  = 
ORIGINATOR     = 

OBJECT_NAME    = SL-16 R/B
OBJECT_ID      = 1998-043G
CENTER_NAME    = EARTH
REF_FRAME      = TEME
TIME_SYSTEM    = UTC
MEAN_ELEMENT_THEORY = SGP/SGP4

EPOCH          = 2026-02-11T18:30:22.716864
MEAN_MOTION    = 14.26043548
ECCENTRICITY   = .00109549
INCLINATION    = 98.8208
RA_OF_ASC_NODE = 355.9581
ARG_OF_PERICENTER = 89.6522
MEAN_ANOMALY   = 270.5913

EPHEMERIS_TYPE = 0
CLASSIFICATION_TYPE = U
NORAD_CAT_ID   = 25400
ELEMENT_SET_NO = 999
REV_AT_EPOCH   = 43529
BSTAR          = .51749177E-4
MEAN_MOTION_DOT = .78E-6
MEAN_MOTION_DDOT = 0

CCSDS_OMM_VERS = 2.0
CREATION_DATE  = 
ORIGINATOR     = 

OBJECT_NAME    = SL-16 R/B
OBJECT_ID      = 1998-045B
CENTER_NAME    = EARTH
REF_FRAME      = TEME
TIME_SYSTEM    = UTC
MEAN_ELEMENT_THEORY = SGP/SGP4

EPOCH          = 2026-02-12T00:05:45.271680
MEAN_MOTION    = 14.16186137
ECCENTRICITY   = .0005523
INCLINATION    = 71.0085
RA_OF_ASC_NODE = 235.5895
ARG_OF_PERICENTER = 55.6053
MEAN_ANOMALY   = 304.5592

EPHEMERIS_TYPE = 0
CLASSIFICATION_TYPE = U
NORAD_CAT_ID   = 25407
ELEMENT_SET_NO = 999
REV_AT_EPOCH   = 42346
BSTAR          = .13565E-3
MEAN_MOTION_DOT = .221E-5
MEAN_MOTION_DDOT = 0

CCSDS_OMM_VERS = 2.0
CREATION_DATE  = 
ORIGINATOR     = 

OBJECT_NAME    = ISS (ZARYA)
OBJECT_ID      = 1998-067A
CENTER_NAME    = EARTH
REF_FRAME      = TEME
TIME_SYSTEM    = UTC
MEAN_ELEMENT_THEORY = SGP/SGP4

EPOCH          = 2026-02-11T21:23:25.357344
MEAN_MOTION    = 15.48551986
ECCENTRICITY   = .0011053
INCLINATION    = 51.6312
RA_OF_ASC_NODE = 199.8857
ARG_OF_PERICENTER = 89.0260
MEAN_ANOMALY   = 271.1995

EPHEMERIS_TYPE = 0
CLASSIFICATION_TYPE = U
NORAD_CAT_ID   = 25544
ELEMENT_SET_NO = 999
REV_AT_EPOCH   = 55233
BSTAR          = .17123E-3
MEAN_MOTION_DOT = .8863E-4
MEAN_MOTION_DDOT = 0

CCSDS_OMM_VERS = 2.0
CREATION_DATE  = 
ORIGINATOR     = 

OBJECT_NAME    = CZ-4B R/B
OBJECT_ID      = 1999-025C
CENTER_NAME    = EARTH
REF_FRAME      = TEME
TIME_SYSTEM    = UTC
MEAN_ELEMENT_THEORY = SGP/SGP4

EPOCH          = 2026-02-12T02:49:37.754112
MEAN_MOTION    = 14.18260165
ECCENTRICITY   = .0037979
INCLINATION    = 98.6679
RA_OF_ASC_NODE = 87.9987
ARG_OF_PERICENTER = 59.5435
MEAN_ANOMALY   = 315.2826

EPHEMERIS_TYPE = 0
CLASSIFICATION_TYPE = U
NORAD_CAT_ID   = 25732
ELEMENT_SET_NO = 999
REV_AT_EPOCH   = 38454
BSTAR          = .44853E-4
MEAN_MOTION_DOT = .5E-6
MEAN_MOTION_DDOT = 0

CCSDS_OMM_VERS = 2.0
CREATION_DATE  = 
ORIGINATOR     = 

OBJECT_NAME    = OKEAN-O
OBJECT_ID      = 1999-039A
CENTER_NAME    = EARTH
REF_FRAME      = TEME
TIME_SYSTEM    = UTC
MEAN_ELEMENT_THEORY = SGP/SGP4

EPOCH          = 2026-02-12T04:03:12.100320
MEAN_MOTION    = 14.80293283
ECCENTRICITY   = .000184
INCLINATION    = 97.9501
RA_OF_ASC_NODE = 103.3126
ARG_OF_PERICENTER = 84.0156
MEAN_ANOMALY   = 276.1266

EPHEMERIS_TYPE = 0
CLASSIFICATION_TYPE = U
NORAD_CAT_ID   = 25860
ELEMENT_SET_NO = 999
REV_AT_EPOCH   = 43061
BSTAR          = .1051E-3
MEAN_MOTION_DOT = .748E-5
MEAN_MOTION_DDOT = 0

CCSDS_OMM_VERS = 2.0
CREATION_DATE  = 
ORIGINATOR     = 

OBJECT_NAME    = SL-16 R/B
OBJECT_ID      = 1999-039B
CENTER_NAME    = EARTH
REF_FRAME      = TEME
TIME_SYSTEM    = UTC
MEAN_ELEMENT_THEORY = SGP/SGP4

EPOCH          = 2026-02-12T04:08:56.020704
MEAN_MOTION    = 14.81695209
ECCENTRICITY   = .0014364
INCLINATION    = 98.0023
RA_OF_ASC_NODE = 102.3000
ARG_OF_PERICENTER = 345.5928
MEAN_ANOMALY   = 14.4873

EPHEMERIS_TYPE = 0
CLASSIFICATION_TYPE = U
NORAD_CAT_ID   = 25861
ELEMENT_SET_NO = 999
REV_AT_EPOCH   = 43308
BSTAR          = .88402E-4
MEAN_MOTION_DOT = .643E-5
MEAN_MOTION_DDOT = 0

CCSDS_OMM_VERS = 2.0
CREATION_DATE  = 
ORIGINATOR     = 

OBJECT_NAME    = DELTA 2 R/B
OBJECT_ID      = 1999-041E
CENTER_NAME    = EARTH
REF_FRAME      = TEME
TIME_SYSTEM    = UTC
MEAN_ELEMENT_THEORY = SGP/SGP4

EPOCH          = 2026-02-12T00:38:41.521344
MEAN_MOTION    = 14.11736278
ECCENTRICITY   = .0502262
INCLINATION    = 51.7656
RA_OF_ASC_NODE = 43.7630
ARG_OF_PERICENTER = 272.6225
MEAN_ANOMALY   = 81.7331

EPHEMERIS_TYPE = 0
CLASSIFICATION_TYPE = U
NORAD_CAT_ID   = 25876
ELEMENT_SET_NO = 999
REV_AT_EPOCH   = 35940
BSTAR          = .40433E-3
MEAN_MOTION_DOT = .2281E-4
MEAN_MOTION_DDOT = 0

CCSDS_OMM_VERS = 2.0
CREATION_DATE  = 
ORIGINATOR     = 

OBJECT_NAME    = HELIOS 1B
OBJECT_ID      = 1999-064A
CENTER_NAME    = EARTH
REF_FRAME      = TEME
TIME_SYSTEM    = UTC
MEAN_ELEMENT_THEORY = SGP/SGP4

EPOCH          = 2026-02-12T03:42:28.857024
MEAN_MOTION    = 14.87591897
ECCENTRICITY   = .0002169
INCLINATION    = 98.1723
RA_OF_ASC_NODE = 304.6442
ARG_OF_PERICENTER = 111.3594
MEAN_ANOMALY   = 248.7853

EPHEMERIS_TYPE = 0
CLASSIFICATION_TYPE = U
NORAD_CAT_ID   = 25977
ELEMENT_SET_NO = 999
REV_AT_EPOCH   = 68146
BSTAR          = .2222E-3
MEAN_MOTION_DOT = .196E-4
MEAN_MOTION_DDOT = 0

CCSDS_OMM_VERS = 2.0
CREATION_DATE  = 
ORIGINATOR     = 

OBJECT_NAME    = TERRA
OBJECT_ID      = 1999-068A
CENTER_NAME    = EARTH
REF_FRAME      = TEME
TIME_SYSTEM    = UTC
MEAN_ELEMENT_THEORY = SGP/SGP4

EPOCH          = 2026-02-12T04:04:55.053696
MEAN_MOTION    = 14.60986744
ECCENTRICITY   = .0000995
INCLINATION    = 97.9649
RA_OF_ASC_NODE = 97.5726
ARG_OF_PERICENTER = 246.3970
MEAN_ANOMALY   = 177.7039

EPHEMERIS_TYPE = 0
CLASSIFICATION_TYPE = U
NORAD_CAT_ID   = 25994
ELEMENT_SET_NO = 999
REV_AT_EPOCH   = 39135
BSTAR          = .11214E-3
MEAN_MOTION_DOT = .505E-5
MEAN_MOTION_DDOT = 0

CCSDS_OMM_VERS = 2.0
CREATION_DATE  = 
ORIGINATOR     = 

OBJECT_NAME    = SL-16 R/B
OBJECT_ID      = 2000-006B
CENTER_NAME    = EARTH
REF_FRAME      = TEME
TIME_SYSTEM    = UTC
MEAN_ELEMENT_THEORY = SGP/SGP4

EPOCH          = 2026-02-11T20:54:49.035168
MEAN_MOTION    = 14.15820033
ECCENTRICITY   = .0018282
INCLINATION    = 71.0029
RA_OF_ASC_NODE = 152.1233
ARG_OF_PERICENTER = 226.6929
MEAN_ANOMALY   = 133.2670

EPHEMERIS_TYPE = 0
CLASSIFICATION_TYPE = U
NORAD_CAT_ID   = 26070
ELEMENT_SET_NO = 999
REV_AT_EPOCH   = 34490
BSTAR          = -.81476E-4
MEAN_MOTION_DOT = -.208E-5
MEAN_MOTION_DDOT = 0

CCSDS_OMM_VERS = 2.0
CREATION_DATE  = 
ORIGINATOR     = 

OBJECT_NAME    = TITAN 4B R/B
OBJECT_ID      = 2000-047B
CENTER_NAME    = EARTH
REF_FRAME      = TEME
TIME_SYSTEM    = UTC
MEAN_ELEMENT_THEORY = SGP/SGP4

EPOCH          = 2026-02-12T04:26:36.060576
MEAN_MOTION    = 15.09345590
ECCENTRICITY   = .0037036
INCLINATION    = 67.9892
RA_OF_ASC_NODE = 112.2173
ARG_OF_PERICENTER = 66.7162
MEAN_ANOMALY   = 293.7878

EPHEMERIS_TYPE = 0
CLASSIFICATION_TYPE = U
NORAD_CAT_ID   = 26474
ELEMENT_SET_NO = 999
REV_AT_EPOCH   = 38906
BSTAR          = .22562E-3
MEAN_MOTION_DOT = .3531E-4
MEAN_MOTION_DDOT = 0

CCSDS_OMM_VERS = 2.0
CREATION_DATE  = 
ORIGINATOR     = 

OBJECT_NAME    = ENVISAT
OBJECT_ID      = 2002-009A
CENTER_NAME    = EARTH
REF_FRAME      = TEME
TIME_SYSTEM    = UTC
MEAN_ELEMENT_THEORY = SGP/SGP4

EPOCH          = 2026-02-11T21:15:43.670304
MEAN_MOTION    = 14.39027163
ECCENTRICITY   = .00013372
INCLINATION    = 98.3682
RA_OF_ASC_NODE = 357.1050
ARG_OF_PERICENTER = 88.2206
MEAN_ANOMALY   = 335.6982

EPHEMERIS_TYPE = 0
CLASSIFICATION_TYPE = U
NORAD_CAT_ID   = 27386
ELEMENT_SET_NO = 999
REV_AT_EPOCH   = 25546
BSTAR          = .60398416E-4
MEAN_MOTION_DOT = .144E-5
MEAN_MOTION_DDOT = 0

